{"spkid": "20669051", "covariance": {"epoch": "2459390.5", "data": [["3.061670830551491E-16", "-5.952605966417201E-16", "-1.993275307099543E-14", "-5.416743097122171E-15", "5.037114910909756E-15", "9.908350998410369E-16"], ["-5.952605966417201E-16", "1.159282740007509E-15", "4.775827804824373E-14", "5.296984606695927E-15", "-9.745020493359511E-16", "-3.176628863949144E-15"], ["-1.993275307099543E-14", "4.775827804824373E-14", "4.546435121480484E-10", "-7.381792199462802E-11", "2.852468836012264E-10", "-5.187080632331559E-12"], ["-5.416743097122171E-15", "5.296984606695927E-15", "-7.381792199462802E-11", "2.334820431265168E-9", "-2.349814848168827E-9", "3.414263732049904E-10"], ["5.037114910909756E-15", "-9.745020493359511E-16", "2.852468836012264E-10", "-2.349814848168827E-9", "2.470428910332988E-9", "-3.410902923239507E-10"], ["9.908350998410369E-16", "-3.176628863949144E-15", "-5.187080632331559E-12", "3.414263732049904E-10", "-3.410902923239507E-10", "6.521486128061105E-11"]], "elements": [{"label": "e", "title": "eccentricity", "value": ".5725100900540355", "units": null, "sigma": 1.74976307840561e-08, "name": "e"}, {"label": "q", "sigma": 3.40482413643863e-08, "name": "q", "units": "au", "title": "perihelion distance", "value": ".8396494638293472"}, {"sigma": 2.13223711661731e-05, "name": "tp", "units": "TDB", "value": "2459300.955099759358", "title": "time of perihelion passage", "label": "tp"}, {"label": "node", "units": "deg", "value": "140.2455232328309", "title": "longitude of the ascending node", "sigma": 4.83199796281535e-05, "name": "om"}, {"label": "peri", "units": "deg", "value": "313.8560642842035", "title": "argument of perihelion", "sigma": 4.97034094437493e-05, "name": "w"}, {"name": "i", "sigma": 8.07557188566922e-06, "units": "deg", "title": "inclination", "value": "7.912077485241222", "label": "i"}], "labels": ["e", "q", "tp", "node", "peri", "i"]}, "elements": [{"label": "e", "title": "eccentricity", "value": ".5727014879092784", "units": null, "sigma": "1.7525E-8", "name": "e"}, {"label": "a", "title": "semi-major axis", "value": "1.963783750010021", "units": "au", "name": "a", "sigma": "3.2392E-9"}, {"label": "q", "name": "q", "sigma": "3.4056E-8", "units": "au", "title": "perihelion distance", "value": ".8391218744472193"}, {"sigma": "8.0767E-6", "name": "i", "value": "7.914994324310308", "title": "inclination; angle with respect to x-y ecliptic plane", "units": "deg", "label": "i"}, {"sigma": "4.8302E-5", "name": "om", "units": "deg", "value": "140.2026078141892", "title": "longitude of the ascending node", "label": "node"}, {"label": "peri", "units": "deg", "title": "argument of perihelion", "value": "313.8713706316497", "name": "w", "sigma": "4.9671E-5"}, {"sigma": "8.2094E-6", "name": "ma", "title": "mean anomaly", "value": "320.2630748838851", "units": "deg", "label": "M"}, {"label": "tp", "units": "TDB", "value": "2461311.450861056928", "title": "time of perihelion passage", "name": "tp", "sigma": "2.3028E-5"}, {"name": "per", "sigma": "2.487E-6", "units": "d", "value": "1005.168614928789", "title": "sidereal orbital period", "label": "period"}, {"sigma": "8.8613E-10", "name": "n", "units": "deg/d", "value": ".3581488664222811", "title": "mean motion", "label": "n"}, {"units": "au", "value": "3.088445625572822", "title": "aphelion distance", "sigma": "5.0943E-9", "name": "ad", "label": "Q"}], "epoch": "2461200.5"}